[{"OBJECT_NAME":"PROTOMETHEE","OBJECT_ID":"2023-174BT","EPOCH":"2026-03-09T23:28:08.029344","MEAN_MOTION":15.30202663,"ECCENTRICITY":0.00088339,"INCLINATION":97.3826,"RA_OF_ASC_NODE":147.9552,"ARG_OF_PERICENTER":148.5993,"MEAN_ANOMALY":211.5776,"EPHEMERIS_TYPE":0,"CLASSIFICATION_TYPE":"U","NORAD_CAT_ID":58321,"ELEMENT_SET_NO":999,"REV_AT_EPOCH":12979,"BSTAR":0.00015715731,"MEAN_MOTION_DOT":4.52e-5,"MEAN_MOTION_DDOT":0},{"OBJECT_NAME":"STARLINK-32519","OBJECT_ID":"2024-239S","EPOCH":"2026-03-09T12:40:44.467680","MEAN_MOTION":15.30178787,"ECCENTRICITY":0.00012899,"INCLINATION":53.1576,"RA_OF_ASC_NODE":181.5663,"ARG_OF_PERICENTER":53.2355,"MEAN_ANOMALY":306.8764,"EPHEMERIS_TYPE":0,"CLASSIFICATION_TYPE":"U","NORAD_CAT_ID":62317,"ELEMENT_SET_NO":999,"REV_AT_EPOCH":6954,"BSTAR":0.001246621,"MEAN_MOTION_DOT":0.00036721,"MEAN_MOTION_DDOT":0}]
